[{"OBJECT_NAME":"IRIDIUM 33 DEB","OBJECT_ID":"1997-051GC","EPOCH":"2026-04-05T14:47:38.419296","MEAN_MOTION":14.4341666,"ECCENTRICITY":0.0032842,"INCLINATION":86.3434,"RA_OF_ASC_NODE":323.3733,"ARG_OF_PERICENTER":112.3065,"MEAN_ANOMALY":277.6168,"EPHEMERIS_TYPE":0,"CLASSIFICATION_TYPE":"U","NORAD_CAT_ID":34487,"ELEMENT_SET_NO":999,"REV_AT_EPOCH":89891,"BSTAR":0.00023367,"MEAN_MOTION_DOT":8.14e-6,"MEAN_MOTION_DDOT":0},{"OBJECT_NAME":"IRIDIUM 33 DEB","OBJECT_ID":"1997-051GH","EPOCH":"2026-04-05T11:55:56.998272","MEAN_MOTION":14.28234949,"ECCENTRICITY":0.01809274,"INCLINATION":86.4694,"RA_OF_ASC_NODE":288.5537,"ARG_OF_PERICENTER":231.6953,"MEAN_ANOMALY":147.2675,"EPHEMERIS_TYPE":0,"CLASSIFICATION_TYPE":"U","NORAD_CAT_ID":34492,"ELEMENT_SET_NO":999,"REV_AT_EPOCH":86681,"BSTAR":0.0031890635,"MEAN_MOTION_DOT":9.491e-5,"MEAN_MOTION_DDOT":0},{"OBJECT_NAME":"IRIDIUM 33 DEB","OBJECT_ID":"1997-051GN","EPOCH":"2026-04-05T18:04:53.592384","MEAN_MOTION":14.27910643,"ECCENTRICITY":0.0078934,"INCLINATION":86.2828,"RA_OF_ASC_NODE":3.6865,"ARG_OF_PERICENTER":332.6443,"MEAN_ANOMALY":81.7955,"EPHEMERIS_TYPE":0,"CLASSIFICATION_TYPE":"U","NORAD_CAT_ID":34497,"ELEMENT_SET_NO":999,"REV_AT_EPOCH":88510,"BSTAR":0.00096354,"MEAN_MOTION_DOT":2.483e-5,"MEAN_MOTION_DDOT":0},{"OBJECT_NAME":"IRIDIUM 33 DEB","OBJECT_ID":"1997-051GZ","EPOCH":"2026-04-05T20:48:29.060928","MEAN_MOTION":14.39321944,"ECCENTRICITY":0.0064375,"INCLINATION":86.3705,"RA_OF_ASC_NODE":54.1879,"ARG_OF_PERICENTER":156.227,"MEAN_ANOMALY":204.1926,"EPHEMERIS_TYPE":0,"CLASSIFICATION_TYPE":"U","NORAD_CAT_ID":34508,"ELEMENT_SET_NO":999,"REV_AT_EPOCH":88950,"BSTAR":0.0011722,"MEAN_MOTION_DOT":3.749e-5,"MEAN_MOTION_DDOT":0},{"OBJECT_NAME":"IRIDIUM 33 DEB","OBJECT_ID":"1997-051HN","EPOCH":"2026-04-05T17:02:14.362080","MEAN_MOTION":14.65065643,"ECCENTRICITY":0.0001101,"INCLINATION":86.3812,"RA_OF_ASC_NODE":340.324,"ARG_OF_PERICENTER":204.453,"MEAN_ANOMALY":155.6631,"EPHEMERIS_TYPE":0,"CLASSIFICATION_TYPE":"U","NORAD_CAT_ID":34521,"ELEMENT_SET_NO":999,"REV_AT_EPOCH":90140,"BSTAR":0.001342,"MEAN_MOTION_DOT":7.222e-5,"MEAN_MOTION_DDOT":0},{"OBJECT_NAME":"IRIDIUM 33 DEB","OBJECT_ID":"1997-051HS","EPOCH":"2026-04-05T18:07:46.395840","MEAN_MOTION":14.43248708,"ECCENTRICITY":0.0006718,"INCLINATION":86.3778,"RA_OF_ASC_NODE":358.1794,"ARG_OF_PERICENTER":76.8455,"MEAN_ANOMALY":337.5582,"EPHEMERIS_TYPE":0,"CLASSIFICATION_TYPE":"U","NORAD_CAT_ID":34525,"ELEMENT_SET_NO":999,"REV_AT_EPOCH":89732,"BSTAR":0.00047479,"MEAN_MOTION_DOT":1.617e-5,"MEAN_MOTION_DDOT":0},{"OBJECT_NAME":"IRIDIUM 33 DEB","OBJECT_ID":"1997-051HW","EPOCH":"2026-04-05T16:13:30.829728","MEAN_MOTION":14.40776751,"ECCENTRICITY":0.0004931,"INCLINATION":86.3677,"RA_OF_ASC_NODE":346.8591,"ARG_OF_PERICENTER":162.6427,"MEAN_ANOMALY":197.4942,"EPHEMERIS_TYPE":0,"CLASSIFICATION_TYPE":"U","NORAD_CAT_ID":34529,"ELEMENT_SET_NO":999,"REV_AT_EPOCH":89782,"BSTAR":0.00025142,"MEAN_MOTION_DOT":8.24e-6,"MEAN_MOTION_DDOT":0},{"OBJECT_NAME":"IRIDIUM 33 DEB","OBJECT_ID":"1997-051JF","EPOCH":"2026-04-05T20:53:05.074368","MEAN_MOTION":14.43419675,"ECCENTRICITY":0.0032913,"INCLINATION":86.2743,"RA_OF_ASC_NODE":315.5573,"ARG_OF_PERICENTER":310.5292,"MEAN_ANOMALY":65.7862,"EPHEMERIS_TYPE":0,"CLASSIFICATION_TYPE":"U","NORAD_CAT_ID":34538,"ELEMENT_SET_NO":999,"REV_AT_EPOCH":89402,"BSTAR":0.00078065,"MEAN_MOTION_DOT":2.671e-5,"MEAN_MOTION_DDOT":0},{"OBJECT_NAME":"IRIDIUM 33 DEB","OBJECT_ID":"1997-051JH","EPOCH":"2026-04-05T10:21:16.671744","MEAN_MOTION":14.78074313,"ECCENTRICITY":0.00172324,"INCLINATION":86.3072,"RA_OF_ASC_NODE":255.494,"ARG_OF_PERICENTER":132.445,"MEAN_ANOMALY":256.7751,"EPHEMERIS_TYPE":0,"CLASSIFICATION_TYPE":"U","NORAD_CAT_ID":34540,"ELEMENT_SET_NO":999,"REV_AT_EPOCH":90699,"BSTAR":0.0020295187,"MEAN_MOTION_DOT":0.00014742,"MEAN_MOTION_DDOT":0},{"OBJECT_NAME":"IRIDIUM 33 DEB","OBJECT_ID":"1997-051JZ","EPOCH":"2026-04-05T08:43:50.391552","MEAN_MOTION":14.137914,"ECCENTRICITY":0.01727706,"INCLINATION":86.393,"RA_OF_ASC_NODE":235.9834,"ARG_OF_PERICENTER":298.6872,"MEAN_ANOMALY":59.7037,"EPHEMERIS_TYPE":0,"CLASSIFICATION_TYPE":"U","NORAD_CAT_ID":34648,"ELEMENT_SET_NO":999,"REV_AT_EPOCH":86565,"BSTAR":0.0039076024,"MEAN_MOTION_DOT":8.546e-5,"MEAN_MOTION_DDOT":0},{"OBJECT_NAME":"IRIDIUM 33 DEB","OBJECT_ID":"1997-051KC","EPOCH":"2026-04-05T10:20:55.546080","MEAN_MOTION":14.2764254,"ECCENTRICITY":0.0133312,"INCLINATION":86.2772,"RA_OF_ASC_NODE":92.0952,"ARG_OF_PERICENTER":196.373,"MEAN_ANOMALY":163.3137,"EPHEMERIS_TYPE":0,"CLASSIFICATION_TYPE":"U","NORAD_CAT_ID":34651,"ELEMENT_SET_NO":999,"REV_AT_EPOCH":87517,"BSTAR":0.0024846,"MEAN_MOTION_DOT":6.747e-5,"MEAN_MOTION_DDOT":0},{"OBJECT_NAME":"IRIDIUM 33 DEB","OBJECT_ID":"1997-051KD","EPOCH":"2026-04-03T00:08:07.042848","MEAN_MOTION":14.6316361,"ECCENTRICITY":0.00255498,"INCLINATION":86.3254,"RA_OF_ASC_NODE":290.4217,"ARG_OF_PERICENTER":276.8921,"MEAN_ANOMALY":215.0908,"EPHEMERIS_TYPE":0,"CLASSIFICATION_TYPE":"U","NORAD_CAT_ID":34652,"ELEMENT_SET_NO":999,"REV_AT_EPOCH":90110,"BSTAR":0.0013121819,"MEAN_MOTION_DOT":6.802e-5,"MEAN_MOTION_DDOT":0},{"OBJECT_NAME":"IRIDIUM 33 DEB","OBJECT_ID":"1997-051KM","EPOCH":"2026-04-05T16:57:55.351296","MEAN_MOTION":14.55581618,"ECCENTRICITY":0.0010254,"INCLINATION":86.3807,"RA_OF_ASC_NODE":347.4558,"ARG_OF_PERICENTER":3.3992,"MEAN_ANOMALY":51.3858,"EPHEMERIS_TYPE":0,"CLASSIFICATION_TYPE":"U","NORAD_CAT_ID":34690,"ELEMENT_SET_NO":999,"REV_AT_EPOCH":89752,"BSTAR":0.00057751,"MEAN_MOTION_DOT":2.539e-5,"MEAN_MOTION_DDOT":0},{"OBJECT_NAME":"IRIDIUM 33 DEB","OBJECT_ID":"1997-051KT","EPOCH":"2026-04-05T15:55:08.385600","MEAN_MOTION":14.74221277,"ECCENTRICITY":0.0059733,"INCLINATION":86.1836,"RA_OF_ASC_NODE":334.1314,"ARG_OF_PERICENTER":132.4514,"MEAN_ANOMALY":254.7293,"EPHEMERIS_TYPE":0,"CLASSIFICATION_TYPE":"U","NORAD_CAT_ID":34696,"ELEMENT_SET_NO":999,"REV_AT_EPOCH":88346,"BSTAR":0.0053863,"MEAN_MOTION_DOT":0.00036782,"MEAN_MOTION_DDOT":0},{"OBJECT_NAME":"IRIDIUM 33 DEB","OBJECT_ID":"1997-051LJ","EPOCH":"2026-04-05T16:14:28.309056","MEAN_MOTION":14.40827944,"ECCENTRICITY":0.0015188,"INCLINATION":86.3425,"RA_OF_ASC_NODE":343.8804,"ARG_OF_PERICENTER":196.2555,"MEAN_ANOMALY":192.5584,"EPHEMERIS_TYPE":0,"CLASSIFICATION_TYPE":"U","NORAD_CAT_ID":34765,"ELEMENT_SET_NO":999,"REV_AT_EPOCH":89254,"BSTAR":0.00048498,"MEAN_MOTION_DOT":1.574e-5,"MEAN_MOTION_DDOT":0},{"OBJECT_NAME":"IRIDIUM 33 DEB","OBJECT_ID":"1997-051MH","EPOCH":"2026-04-05T11:46:03.999648","MEAN_MOTION":14.53240692,"ECCENTRICITY":0.00218802,"INCLINATION":86.3981,"RA_OF_ASC_NODE":1.9482,"ARG_OF_PERICENTER":75.6278,"MEAN_ANOMALY":101.8712,"EPHEMERIS_TYPE":0,"CLASSIFICATION_TYPE":"U","NORAD_CAT_ID":34833,"ELEMENT_SET_NO":999,"REV_AT_EPOCH":89366,"BSTAR":0.0009960639,"MEAN_MOTION_DOT":4.163e-5,"MEAN_MOTION_DDOT":0}]
