IRIDIUM 33 DEB          
1 34487U 97051GC  26095.61641689  .00000814  00000+0  23367-3 0  9997
2 34487  86.3434 323.3733 0032842 112.3065 277.6168 14.43416660898914
IRIDIUM 33 DEB          
1 34492U 97051GH  26095.49718748  .00009491  00000+0  31891-2 0  9990
2 34492  86.4694 288.5537 0180927 231.6953 147.2675 14.28234949866812
IRIDIUM 33 DEB          
1 34497U 97051GN  26095.75339806  .00002483  00000+0  96354-3 0  9998
2 34497  86.2828   3.6865 0078934 332.6443  81.7955 14.27910643885101
IRIDIUM 33 DEB          
1 34508U 97051GZ  26095.86700302  .00003749  00000+0  11722-2 0  9997
2 34508  86.3705  54.1879 0064375 156.2270 204.1926 14.39321944889507
IRIDIUM 33 DEB          
1 34521U 97051HN  26095.70988845  .00007222  00000+0  13420-2 0  9992
2 34521  86.3812 340.3240 0001101 204.4530 155.6631 14.65065643901403
IRIDIUM 33 DEB          
1 34525U 97051HS  26095.75539810  .00001617  00000+0  47479-3 0  9999
2 34525  86.3778 358.1794 0006718  76.8455 337.5582 14.43248708897327
IRIDIUM 33 DEB          
1 34529U 97051HW  26095.67605127  .00000824  00000+0  25142-3 0  9991
2 34529  86.3677 346.8591 0004931 162.6427 197.4942 14.40776751897825
IRIDIUM 33 DEB          
1 34538U 97051JF  26095.87019762  .00002671  00000+0  78065-3 0  9991
2 34538  86.2743 315.5573 0032913 310.5292  65.7862 14.43419675894025
IRIDIUM 33 DEB          
1 34540U 97051JH  26095.43144296  .00014742  00000+0  20295-2 0  9990
2 34540  86.3072 255.4940 0017232 132.4450 256.7751 14.78074313906991
IRIDIUM 33 DEB          
1 34648U 97051JZ  26095.36377768  .00008546  00000+0  39076-2 0  9995
2 34648  86.3930 235.9834 0172770 298.6872  59.7037 14.13791400865657
IRIDIUM 33 DEB          
1 34651U 97051KC  26095.43119845  .00006747  00000+0  24846-2 0  9997
2 34651  86.2772  92.0952 0133312 196.3730 163.3137 14.27642540875179
IRIDIUM 33 DEB          
1 34652U 97051KD  26093.00563707  .00006802  00000+0  13122-2 0  9996
2 34652  86.3254 290.4217 0025549 276.8921 215.0908 14.63163610901102
IRIDIUM 33 DEB          
1 34690U 97051KM  26095.70689064  .00002539  00000+0  57751-3 0  9992
2 34690  86.3807 347.4558 0010254   3.3992  51.3858 14.55581618897525
IRIDIUM 33 DEB          
1 34696U 97051KT  26095.66329150  .00036782  00000+0  53863-2 0  9996
2 34696  86.1836 334.1314 0059733 132.4514 254.7293 14.74221277883466
IRIDIUM 33 DEB          
1 34765U 97051LJ  26095.67671654  .00001574  00000+0  48498-3 0  9993
2 34765  86.3425 343.8804 0015188 196.2555 192.5584 14.40827944892546
IRIDIUM 33 DEB          
1 34833U 97051MH  26095.49032407  .00004163  00000+0  99606-3 0  9990
2 34833  86.3981   1.9482 0021880  75.6278 101.8712 14.53240692893664
